$$SOE
2461281.500000000, A.D. 2026-Aug-29 00:00:00.0000, -3.324892111045676E+08, -1.010364719454621E+09, 3.206877673936740E+08,
2461288.500000000, A.D. 2026-Sep-05 00:00:00.0000, -3.262244025278318E+08, -1.010937835103596E+09, 3.198666800467174E+08,
2461295.500000000, A.D. 2026-Sep-12 00:00:00.0000, -3.199479660026113E+08, -1.011475038644916E+09, 3.190342162097054E+08,
2461302.500000000, A.D. 2026-Sep-19 00:00:00.0000, -3.136600776688117E+08, -1.011976157908362E+09, 3.181903570557092E+08,
2461309.500000000, A.D. 2026-Sep-26 00:00:00.0000, -3.073609151766883E+08, -1.012441021035095E+09, 3.173350839311441E+08,
2461316.500000000, A.D. 2026-Oct-03 00:00:00.0000, -3.010506576379828E+08, -1.012869456251266E+09, 3.164683783711714E+08,
2461323.500000000, A.D. 2026-Oct-10 00:00:00.0000, -2.947294856638691E+08, -1.013261291734648E+09, 3.155902221146685E+08,
2461330.500000000, A.D. 2026-Oct-17 00:00:00.0000, -2.883975814380402E+08, -1.013616355555139E+09, 3.147005971156574E+08,
2461337.500000000, A.D. 2026-Oct-24 00:00:00.0000, -2.820551288005592E+08, -1.013934475711672E+09, 3.137994855471991E+08,
2461344.500000000, A.D. 2026-Oct-31 00:00:00.0000, -2.757023132436866E+08, -1.014215480332196E+09, 3.128868697833757E+08,
2461351.500000000, A.D. 2026-Nov-07 00:00:00.0000, -2.693393214806332E+08, -1.014459197962642E+09, 3.119627323344842E+08,
2461358.500000000, A.D. 2026-Nov-14 00:00:00.0000, -2.629663403863656E+08, -1.014665457057448E+09, 3.110270557897431E+08,
2461365.500000000, A.D. 2026-Nov-21 00:00:00.0000, -2.565835571222298E+08, -1.014834083989765E+09, 3.100798229896331E+08,
2461372.500000000, A.D. 2026-Nov-28 00:00:00.0000, -2.501911614424584E+08, -1.014964902589357E+09, 3.091210172738194E+08,
2461379.500000000, A.D. 2026-Dec-05 00:00:00.0000, -2.437893465629829E+08, -1.015057735864553E+09, 3.081506224193281E+08,
2461386.500000000, A.D. 2026-Dec-12 00:00:00.0000, -2.373783084276324E+08, -1.015112406797317E+09, 3.071686225084040E+08,
2461393.500000000, A.D. 2026-Dec-19 00:00:00.0000, -2.309582452589978E+08, -1.015128738205033E+09, 3.061750018999421E+08,
2461400.500000000, A.D. 2026-Dec-26 00:00:00.0000, -2.245293575363989E+08, -1.015106552537048E+09, 3.051697452468276E+08,
2461407.500000000, A.D. 2027-Jan-02 00:00:00.0000, -2.180918481253651E+08, -1.015045671797036E+09, 3.041528375184513E+08,
2461414.500000000, A.D. 2027-Jan-09 00:00:00.0000, -2.116459224422883E+08, -1.014945917571162E+09, 3.031242640194448E+08,
2461421.500000000, A.D. 2027-Jan-16 00:00:00.0000, -2.051917886199429E+08, -1.014807111153494E+09, 3.020840104021933E+08,
2461428.500000000, A.D. 2027-Jan-23 00:00:00.0000, -1.987296576292836E+08, -1.014629073808496E+09, 3.010320626657013E+08,
2461435.500000000, A.D. 2027-Jan-30 00:00:00.0000, -1.922597431713945E+08, -1.014411627218626E+09, 2.999684071196700E+08,
2461442.500000000, A.D. 2027-Feb-06 00:00:00.0000, -1.857822609165068E+08, -1.014154593777192E+09, 2.988930303025504E+08,
2461449.500000000, A.D. 2027-Feb-13 00:00:00.0000, -1.792974275519943E+08, -1.013857795506939E+09, 2.978059189953467E+08,
2461456.500000000, A.D. 2027-Feb-20 00:00:00.0000, -1.728054620045541E+08, -1.013521052395438E+09, 2.967070604831473E+08,
2461463.500000000, A.D. 2027-Feb-27 00:00:00.0000, -1.663065874415931E+08, -1.013144183360978E+09, 2.955964426735048E+08,
2461470.500000000, A.D. 2027-Mar-06 00:00:00.0000, -1.598010310342931E+08, -1.012727007926421E+09, 2.944740539517784E+08,
2461477.500000000, A.D. 2027-Mar-13 00:00:00.0000, -1.532890230829285E+08, -1.012269346551603E+09, 2.933398830875170E+08,
2461484.500000000, A.D. 2027-Mar-20 00:00:00.0000, -1.467707966340112E+08, -1.011771020458897E+09, 2.921939192270720E+08,
2461491.500000000, A.D. 2027-Mar-27 00:00:00.0000, -1.402465873872851E+08, -1.011231851500853E+09, 2.910361519088855E+08,
2461498.500000000, A.D. 2027-Apr-03 00:00:00.0000, -1.337166336896420E+08, -1.010651662117629E+09, 2.898665710788201E+08,
2461505.500000000, A.D. 2027-Apr-10 00:00:00.0000, -1.271811765546809E+08, -1.010030275361172E+09, 2.886851671017192E+08,
2461512.500000000, A.D. 2027-Apr-17 00:00:00.0000, -1.206404596857992E+08, -1.009367515000482E+09, 2.874919307659670E+08,
2461519.500000000, A.D. 2027-Apr-24 00:00:00.0000, -1.140947294235856E+08, -1.008663205770175E+09, 2.862868532686980E+08,
2461526.500000000, A.D. 2027-May-01 00:00:00.0000, -1.075442343178817E+08, -1.007917173734587E+09, 2.850699261564707E+08,
2461533.500000000, A.D. 2027-May-08 00:00:00.0000, -1.009892240171362E+08, -1.007129246019079E+09, 2.838411412544116E+08,
2461540.500000000, A.D. 2027-May-15 00:00:00.0000, -9.442994897197258E+07, -1.006299248955114E+09, 2.826004907990668E+08,
2461547.500000000, A.D. 2027-May-22 00:00:00.0000, -8.786666251684763E+07, -1.005427007230687E+09, 2.813479677066052E+08,
2461554.500000000, A.D. 2027-May-29 00:00:00.0000, -8.129962197383593E+07, -1.004512345514321E+09, 2.800835655486375E+08,
2461561.500000000, A.D. 2027-Jun-05 00:00:00.0000, -7.472908789369290E+07, -1.003555089420962E+09, 2.788072784105458E+08,
2461568.500000000, A.D. 2027-Jun-12 00:00:00.0000, -6.815532344174013E+07, -1.002555065387965E+09, 2.775191008518538E+08,
2461575.500000000, A.D. 2027-Jun-19 00:00:00.0000, -6.157859425960892E+07, -1.001512100396180E+09, 2.762190279227219E+08,
2461582.500000000, A.D. 2027-Jun-26 00:00:00.0000, -5.499916852341481E+07, -1.000426021797435E+09, 2.749070551897438E+08,
2461589.500000000, A.D. 2027-Jul-03 00:00:00.0000, -4.841731706621192E+07, -9.992966572400862E+08, 2.735831787598108E+08,
2461596.500000000, A.D. 2027-Jul-10 00:00:00.0000, -4.183331352785910E+07, -9.981238346839263E+08, 2.722473952995995E+08,
2461603.500000000, A.D. 2027-Jul-17 00:00:00.0000, -3.524743449591483E+07, -9.969073825433124E+08, 2.708997020444304E+08,
2461610.500000000, A.D. 2027-Jul-24 00:00:00.0000, -2.865995948110730E+07, -9.956471300213439E+08, 2.695400967772659E+08,
2461617.500000000, A.D. 2027-Jul-31 00:00:00.0000, -2.207117031592939E+07, -9.943429073996239E+08, 2.681685777596093E+08,
2461624.500000000, A.D. 2027-Aug-07 00:00:00.0000, -1.548135017708246E+07, -9.929945451319060E+08, 2.667851437270339E+08,
2461631.500000000, A.D. 2027-Aug-14 00:00:00.0000, -8.890784532910079E+06, -9.916018719949462E+08, 2.653897941398016E+08,
2461638.500000000, A.D. 2027-Aug-21 00:00:00.0000, -2.299763397574185E+06, -9.901647156606975E+08, 2.639825293569452E+08,
2461645.500000000, A.D. 2027-Aug-28 00:00:00.0000, 4.291418539150976E+06, -9.886829044866698E+08, 2.625633505174406E+08,
2461652.500000000, A.D. 2027-Sep-04 00:00:00.0000, 1.088246272533200E+07, -9.871562680222311E+08, 2.611322594412114E+08,
2461659.500000000, A.D. 2027-Sep-11 00:00:00.0000, 1.747306710825071E+07, -9.855846368921826E+08, 2.596892586237085E+08,
2461666.500000000, A.D. 2027-Sep-18 00:00:00.0000, 2.406292617687689E+07, -9.839678427077041E+08, 2.582343512584783E+08,
2461673.500000000, A.D. 2027-Sep-25 00:00:00.0000, 3.065173091430519E+07, -9.823057180820775E+08, 2.567675412601173E+08,
2461680.500000000, A.D. 2027-Oct-02 00:00:00.0000, 3.723916873523046E+07, -9.805980967232970E+08, 2.552888332827170E+08,
2461687.500000000, A.D. 2027-Oct-09 00:00:00.0000, 4.382492343098695E+07, -9.788448136076930E+08, 2.537982327311161E+08,
2461694.500000000, A.D. 2027-Oct-16 00:00:00.0000, 5.040867518542765E+07, -9.770457052890366E+08, 2.522957457544582E+08,
2461701.500000000, A.D. 2027-Oct-23 00:00:00.0000, 5.699010092165488E+07, -9.752006103484393E+08, 2.507813791975682E+08,
2461708.500000000, A.D. 2027-Oct-30 00:00:00.0000, 6.356887535444980E+07, -9.733093693743924E+08, 2.492551405255222E+08,
2461715.500000000, A.D. 2027-Nov-06 00:00:00.0000, 7.014467158505222E+07, -9.713718233445089E+08, 2.477170379202030E+08,
2461722.500000000, A.D. 2027-Nov-13 00:00:00.0000, 7.671715925292338E+07, -9.693878124848826E+08, 2.461670805611535E+08,
2461729.500000000, A.D. 2027-Nov-20 00:00:00.0000, 8.328600314648256E+07, -9.673571777926989E+08, 2.446052786458827E+08,
2461736.500000000, A.D. 2027-Nov-27 00:00:00.0000, 8.985086389051236E+07, -9.652797622575551E+08, 2.430316432435706E+08,
2461743.500000000, A.D. 2027-Dec-04 00:00:00.0000, 9.641139868673587E+07, -9.631554108675486E+08, 2.414461862425175E+08,
2461750.500000000, A.D. 2027-Dec-11 00:00:00.0000, 1.029672615570168E+08, -9.609839703640697E+08, 2.398489203631300E+08,
2461757.500000000, A.D. 2027-Dec-18 00:00:00.0000, 1.095181033641738E+08, -9.587652890843394E+08, 2.382398591835986E+08,
2461764.500000000, A.D. 2027-Dec-25 00:00:00.0000, 1.160635717624095E+08, -9.564992168937793E+08, 2.366190171642495E+08,
2461771.500000000, A.D. 2028-Jan-01 00:00:00.0000, 1.226033111187810E+08, -9.541856051935420E+08, 2.349864096680681E+08,
$$EOE